HIMAWARI-8              
1 40267U 14060A   24207.28174309 -.00000278  00000+0  00000+0 0  9995
2 40267   0.0125 194.9278 0001072 316.0696  34.5663  1.00267285 35927
